{"type": "FeatureCollection", "features": [ {"type": "Feature", "properties": {"norad_id": 66525, "name": "STARLINK-35975", "group": "last-30-days", "lat": 31.883745541159332, "lon": 92.21162872418694, "alt_km": 426.5763279522507, "timestamp": "2025-12-13T08:49:14.455941+00:00", "meta": {"OBJECT_NAME": "STARLINK-35975", "OBJECT_ID": "2025-265K", "EPOCH": "2025-12-12T20:00:01.999872", "MEAN_MOTION": 15.47583135, "ECCENTRICITY": 0.00013712, "INCLINATION": 43.0004, "RA_OF_ASC_NODE": 53.4398, "ARG_OF_PERICENTER": 267.9756, "MEAN_ANOMALY": 45.6123, "EPHEMERIS_TYPE": 0, "CLASSIFICATION_TYPE": "U", "NORAD_CAT_ID": 66525, "ELEMENT_SET_NO": 999, "REV_AT_EPOCH": 500, "BSTAR": -0.044614728, "MEAN_MOTION_DOT": -0.02090476, "MEAN_MOTION_DDOT": 0}, "tle": {"line1": "1 66525U 25265K   25346.83335648 -.02090476  00000+0 -44615-1 0  9994", "line2": "2 66525  43.0004  53.4398 0001371 267.9756  45.6123 15.47583135  5001"}}, "geometry": {"type": "Point", "coordinates": [92.21162872418694, 31.883745541159332]}}, {"type": "Feature", "properties": {"norad_id": 66526, "name": "STARLINK-35932", "group": "last-30-days", "lat": 37.95330424777388, "lon": 107.12562891824196, "alt_km": 410.1361180848671, "timestamp": "2025-12-13T08:49:14.455951+00:00", "meta": {"OBJECT_NAME": "STARLINK-35932", "OBJECT_ID": "2025-265L", "EPOCH": "2025-12-12T20:00:01.999872", "MEAN_MOTION": 15.50759656, "ECCENTRICITY": 0.00013488, "INCLINATION": 43.0004, "RA_OF_ASC_NODE": 53.4257, "ARG_OF_PERICENTER": 221.7863, "MEAN_ANOMALY": 97.2428, "EPHEMERIS_TYPE": 0, "CLASSIFICATION_TYPE": "U", "NORAD_CAT_ID": 66526, "ELEMENT_SET_NO": 999, "REV_AT_EPOCH": 490, "BSTAR": -0.0043728908, "MEAN_MOTION_DOT": -0.00250453, "MEAN_MOTION_DDOT": 0}, "tle": {"line1": "1 66526U 25265L   25346.83335648 -.00250453  00000+0 -43729-2 0  9992", "line2": "2 66526  43.0004  53.4257 0001348 221.7863  97.2428 15.50759656  4903"}}, "geometry": {"type": "Point", "coordinates": [107.12562891824196, 37.95330424777388]}}, {"type": "Feature", "properties": {"norad_id": 66527, "name": "STARLINK-35935", "group": "last-30-days", "lat": 38.65286252371198, "lon": 109.42075862525842, "alt_km": 410.14566018006644, "timestamp": "2025-12-13T08:49:14.455962+00:00", "meta": {"OBJECT_NAME": "STARLINK-35935", "OBJECT_ID": "2025-265M", "EPOCH": "2025-12-12T20:00:01.999872", "MEAN_MOTION": 15.50707214, "ECCENTRICITY": 0.00014094, "INCLINATION": 43.0004, "RA_OF_ASC_NODE": 53.4216, "ARG_OF_PERICENTER": 262.0417, "MEAN_ANOMALY": 58.9844, "EPHEMERIS_TYPE": 0, "CLASSIFICATION_TYPE": "U", "NORAD_CAT_ID": 66527, "ELEMENT_SET_NO": 999, "REV_AT_EPOCH": 501, "BSTAR": -0.00395494, "MEAN_MOTION_DOT": -0.00226802, "MEAN_MOTION_DDOT": 0}, "tle": {"line1": "1 66527U 25265M   25346.83335648 -.00226802  00000+0 -39549-2 0  9999", "line2": "2 66527  43.0004  53.4216 0001409 262.0417  58.9844 15.50707214  5012"}}, "geometry": {"type": "Point", "coordinates": [109.42075862525842, 38.65286252371198]}}, {"type": "Feature", "properties": {"norad_id": 66528, "name": "STARLINK-35928", "group": "last-30-days", "lat": 39.30368279604275, "lon": 111.74657127465923, "alt_km": 410.1243799949825, "timestamp": "2025-12-13T08:49:14.455974+00:00", "meta": {"OBJECT_NAME": "STARLINK-35928", "OBJECT_ID": "2025-265N", "EPOCH": "2025-12-12T20:00:01.999872", "MEAN_MOTION": 15.50686611, "ECCENTRICITY": 0.00016072, "INCLINATION": 43.0006, "RA_OF_ASC_NODE": 53.416, "ARG_OF_PERICENTER": 268.4489, "MEAN_ANOMALY": 54.5139, "EPHEMERIS_TYPE": 0, "CLASSIFICATION_TYPE": "U", "NORAD_CAT_ID": 66528, "ELEMENT_SET_NO": 999, "REV_AT_EPOCH": 501, "BSTAR": -0.0035590779, "MEAN_MOTION_DOT": -0.00204563, "MEAN_MOTION_DDOT": 0}, "tle": {"line1": "1 66528U 25265N   25346.83335648 -.00204563  00000+0 -35591-2 0  9993", "line2": "2 66528  43.0006  53.4160 0001607 268.4489  54.5139 15.50686611  5018"}}, "geometry": {"type": "Point", "coordinates": [111.74657127465923, 39.30368279604275]}}, {"type": "Feature", "properties": {"norad_id": 66529, "name": "STARLINK-35933", "group": "last-30-days", "lat": 14.239558620700027, "lon": 66.20820810688184, "alt_km": 443.45108319027804, "timestamp": "2025-12-13T08:49:14.455986+00:00", "meta": {"OBJECT_NAME": "STARLINK-35933", "OBJECT_ID": "2025-265P", "EPOCH": "2025-12-12T20:00:01.999872", "MEAN_MOTION": 15.41626386, "ECCENTRICITY": 0.00014685, "INCLINATION": 43.0004, "RA_OF_ASC_NODE": 53.485, "ARG_OF_PERICENTER": 283.8817, "MEAN_ANOMALY": 10.6861, "EPHEMERIS_TYPE": 0, "CLASSIFICATION_TYPE": "U", "NORAD_CAT_ID": 66529, "ELEMENT_SET_NO": 999, "REV_AT_EPOCH": 501, "BSTAR": -0.033557012, "MEAN_MOTION_DOT": -0.01303186, "MEAN_MOTION_DDOT": 0}, "tle": {"line1": "1 66529U 25265P   25346.83335648 -.01303186  00000+0 -33557-1 0  9995", "line2": "2 66529  43.0004  53.4850 0001468 283.8817  10.6861 15.41626386  5012"}}, "geometry": {"type": "Point", "coordinates": [66.20820810688184, 14.239558620700027]}}, {"type": "Feature", "properties": {"norad_id": 66530, "name": "STARLINK-35961", "group": "last-30-days", "lat": 28.89707404405907, "lon": 86.6696707323477, "alt_km": 435.04382425079257, "timestamp": "2025-12-13T08:49:14.455997+00:00", "meta": {"OBJECT_NAME": "STARLINK-35961", "OBJECT_ID": "2025-265Q", "EPOCH": "2025-12-12T20:00:01.999872", "MEAN_MOTION": 15.44782538, "ECCENTRICITY": 0.00013051, "INCLINATION": 43.0006, "RA_OF_ASC_NODE": 53.4403, "ARG_OF_PERICENTER": 271.6851, "MEAN_ANOMALY": 41.6419, "EPHEMERIS_TYPE": 0, "CLASSIFICATION_TYPE": "U", "NORAD_CAT_ID": 66530, "ELEMENT_SET_NO": 999, "REV_AT_EPOCH": 501, "BSTAR": -0.04866655, "MEAN_MOTION_DOT": -0.02070839, "MEAN_MOTION_DDOT": 0}, "tle": {"line1": "1 66530U 25265Q   25346.83335648 -.02070839  00000+0 -48667-1 0  9992", "line2": "2 66530  43.0006  53.4403 0001305 271.6851  41.6419 15.44782538  5011"}}, "geometry": {"type": "Point", "coordinates": [86.6696707323477, 28.89707404405907]}}, {"type": "Feature", "properties": {"norad_id": 66531, "name": "STARLINK-35960", "group": "last-30-days", "lat": 37.32963697540584, "lon": 105.22522937757809, "alt_km": 425.45908313738255, "timestamp": "2025-12-13T08:49:14.456009+00:00", "meta": {"OBJECT_NAME": "STARLINK-35960", "OBJECT_ID": "2025-265R", "EPOCH": "2025-12-12T20:00:01.999872", "MEAN_MOTION": 15.47697598, "ECCENTRICITY": 0.00014284, "INCLINATION": 43.0006, "RA_OF_ASC_NODE": 53.4092, "ARG_OF_PERICENTER": 274.4131, "MEAN_ANOMALY": 50.9624, "EPHEMERIS_TYPE": 0, "CLASSIFICATION_TYPE": "U", "NORAD_CAT_ID": 66531, "ELEMENT_SET_NO": 999, "REV_AT_EPOCH": 501, "BSTAR": -0.04440985, "MEAN_MOTION_DOT": -0.02089446, "MEAN_MOTION_DDOT": 0}, "tle": {"line1": "1 66531U 25265R   25346.83335648 -.02089446  00000+0 -44410-1 0  9999", "line2": "2 66531  43.0006  53.4092 0001428 274.4131  50.9624 15.47697598  5019"}}, "geometry": {"type": "Point", "coordinates": [105.22522937757809, 37.32963697540584]}}, {"type": "Feature", "properties": {"norad_id": 66532, "name": "STARLINK-35914", "group": "last-30-days", "lat": 40.86880880379596, "lon": 118.48565559412113, "alt_km": 416.9244881211389, "timestamp": "2025-12-13T08:49:14.456020+00:00", "meta": {"OBJECT_NAME": "STARLINK-35914", "OBJECT_ID": "2025-265S", "EPOCH": "2025-12-12T20:00:01.999872", "MEAN_MOTION": 15.5066938, "ECCENTRICITY": 0.00017168, "INCLINATION": 43.0004, "RA_OF_ASC_NODE": 53.3963, "ARG_OF_PERICENTER": 257.6978, "MEAN_ANOMALY": 72.9176, "EPHEMERIS_TYPE": 0, "CLASSIFICATION_TYPE": "U", "NORAD_CAT_ID": 66532, "ELEMENT_SET_NO": 999, "REV_AT_EPOCH": 501, "BSTAR": -0.041527891, "MEAN_MOTION_DOT": -0.02162512, "MEAN_MOTION_DDOT": 0}, "tle": {"line1": "1 66532U 25265S   25346.83335648 -.02162512  00000+0 -41528-1 0  9993", "line2": "2 66532  43.0004  53.3963 0001716 257.6978  72.9176 15.50669380  5014"}}, "geometry": {"type": "Point", "coordinates": [118.48565559412113, 40.86880880379596]}}, {"type": "Feature", "properties": {"norad_id": 66533, "name": "STARLINK-35707", "group": "last-30-days", "lat": 41.80335789477867, "lon": 123.92398148060562, "alt_km": 409.8736404794199, "timestamp": "2025-12-13T08:49:14.456031+00:00", "meta": {"OBJECT_NAME": "STARLINK-35707", "OBJECT_ID": "2025-265T", "EPOCH": "2025-12-12T20:00:01.999872", "MEAN_MOTION": 15.5072107, "ECCENTRICITY": 0.00017352, "INCLINATION": 43.0004, "RA_OF_ASC_NODE": 53.3923, "ARG_OF_PERICENTER": 273.7203, "MEAN_ANOMALY": 58.7963, "EPHEMERIS_TYPE": 0, "CLASSIFICATION_TYPE": "U", "NORAD_CAT_ID": 66533, "ELEMENT_SET_NO": 999, "REV_AT_EPOCH": 501, "BSTAR": -0.0042229305, "MEAN_MOTION_DOT": -0.00241819, "MEAN_MOTION_DDOT": 0}, "tle": {"line1": "1 66533U 25265T   25346.83335648 -.00241819  00000+0 -42229-2 0  9990", "line2": "2 66533  43.0004  53.3923 0001735 273.7203  58.7963 15.50721070  5013"}}, "geometry": {"type": "Point", "coordinates": [123.92398148060562, 41.80335789477867]}}, {"type": "Feature", "properties": {"norad_id": 66534, "name": "STARLINK-35976", "group": "last-30-days", "lat": 42.143757425287184, "lon": 126.46016268979633, "alt_km": 409.7704651587137, "timestamp": "2025-12-13T08:49:14.456041+00:00", "meta": {"OBJECT_NAME": "STARLINK-35976", "OBJECT_ID": "2025-265U", "EPOCH": "2025-12-12T20:00:01.999872", "MEAN_MOTION": 15.50709744, "ECCENTRICITY": 0.00015864, "INCLINATION": 43.0006, "RA_OF_ASC_NODE": 53.3883, "ARG_OF_PERICENTER": 266.4714, "MEAN_ANOMALY": 67.9758, "EPHEMERIS_TYPE": 0, "CLASSIFICATION_TYPE": "U", "NORAD_CAT_ID": 66534, "ELEMENT_SET_NO": 999, "REV_AT_EPOCH": 501, "BSTAR": -0.0040422319, "MEAN_MOTION_DOT": -0.00231683, "MEAN_MOTION_DDOT": 0}, "tle": {"line1": "1 66534U 25265U   25346.83335648 -.00231683  00000+0 -40422-2 0  9992", "line2": "2 66534  43.0006  53.3883 0001586 266.4714  67.9758 15.50709744  5019"}}, "geometry": {"type": "Point", "coordinates": [126.46016268979633, 42.143757425287184]}}]}